[{"OBJECT_NAME":"STARLINK-5857","OBJECT_ID":"2023-037AJ","EPOCH":"2026-03-09T22:00:01.999584","MEAN_MOTION":14.98333401,"ECCENTRICITY":0.00026408,"INCLINATION":70.0002,"RA_OF_ASC_NODE":283.7999,"ARG_OF_PERICENTER":273.5766,"MEAN_ANOMALY":179.157,"EPHEMERIS_TYPE":0,"CLASSIFICATION_TYPE":"U","NORAD_CAT_ID":55946,"ELEMENT_SET_NO":999,"REV_AT_EPOCH":571,"BSTAR":0.0014450745,"MEAN_MOTION_DOT":0.00017193,"MEAN_MOTION_DDOT":0},{"OBJECT_NAME":"H-2A R\/B","OBJECT_ID":"2009-002J","EPOCH":"2026-03-09T23:38:52.170720","MEAN_MOTION":15.01829324,"ECCENTRICITY":0.00333022,"INCLINATION":98.2328,"RA_OF_ASC_NODE":87.9691,"ARG_OF_PERICENTER":111.7239,"MEAN_ANOMALY":248.7534,"EPHEMERIS_TYPE":0,"CLASSIFICATION_TYPE":"U","NORAD_CAT_ID":33500,"ELEMENT_SET_NO":999,"REV_AT_EPOCH":92943,"BSTAR":0.00033449169,"MEAN_MOTION_DOT":4.347e-5,"MEAN_MOTION_DDOT":0}]
